1 29107U 06016  A 14211.00000000  .00000245  00000-0  54462-4 0 00011
2 29107 098.2023 154.1601 0001636 092.2237 048.0208 14.57101432439066
1 29107U 06016  A 14212.00000000  .00000294  00000-0  65303-4 0 00012
2 29107 098.2022 155.1450 0001631 091.8643 250.8433 14.57101988439204
1 29107U 06016  A 14213.00000000  .00000319  00000-0  70981-4 0 00019
2 29107 098.2021 156.1300 0001626 091.3208 093.8513 14.57102730439350
1 29107U 06016  A 14214.00000000  .00000306  00000-0  68102-4 0 00018
2 29107 098.2021 157.1150 0001624 090.8801 296.7599 14.57104168439507
1 29107U 06016    14215.00000000  .00000308  00000-0  68595-4 0 00017
2 29107 098.2023 158.1000 0001607 090.7694 139.3429 14.57105190439649
1 29107U 06016  A 14216.00000000  .00000314  00000-0  69844-4 0 00013
2 29107 098.2024 159.0848 0001607 089.9249 342.6632 14.57106132439794
1 29107U 06016  A 14217.00000000  .00000277  00000-0  61666-4 0 00016
2 29107 098.2026 160.0697 0001596 089.5195 185.5485 14.57106952439939
1 29107U 06016  A 14218.00000000  .00000256  00000-0  57038-4 0 00012
2 29107 098.2029 161.0546 0001590 089.0923 028.4581 14.57108108440089
1 29107U 06016  A 14219.00000000  .00000247  00000-0  54867-4 0 00010
2 29107 098.2032 162.0395 0001581 088.7644 231.2726 14.57108897440228
1 29107U 06016  A 14220.00000000  .00000227  00000-0  50421-4 0 00012
2 29107 098.2034 163.0244 0001570 088.3205 074.2052 14.57109659440371
1 29107U 06016  A 14221.00000000  .00000155  00000-0  34522-4 0 00017
2 29107 098.2035 164.0094 0001554 087.8344 277.1835 14.57110169440524
1 29107U 06016  A 14222.00000000  .00000151  00000-0  33505-4 0 00014
2 29107 098.2036 164.9943 0001545 087.4140 120.0978 14.57110623440661
1 29107U 06016  A 14223.00000000  .00000154  00000-0  34236-4 0 00010
2 29107 098.2052 165.9802 0001287 110.5695 299.4405 14.57110920440813
1 29107U 06016  A 14224.00000000  .00000168  00000-0  37259-4 0 00014
2 29107 098.2035 166.9643 0001525 086.7394 165.7662 14.57111636440953
1 29107U 06016  A 14225.00000000  .00000173  00000-0  38444-4 0 00018
2 29107 098.2034 167.9494 0001511 086.4022 008.6022 14.57112220441100
1 29107U 06016  A 14226.00000000  .00000168  00000-0  37321-4 0 00016
2 29107 098.2033 168.9345 0001493 086.0949 211.4108 14.57112580441241
1 29107U 06016  A 14227.00000000  .00000166  00000-0  36951-4 0 00013
2 29107 098.2033 169.9196 0001485 085.9104 054.0976 14.57113120441399
1 29107U 06016  A 14228.00000000  .00000159  00000-0  35281-4 0 00011
2 29107 098.2033 170.9047 0001475 085.8227 256.6899 14.57113597441538
1 29107U 06016  A 14229.00000000  .00000146  00000-0  32448-4 0 00010
2 29107 098.2034 171.8898 0001461 085.5267 099.4914 14.57114041441681
1 29107U 06016  A 14230.00000000  .00000137  00000-0  30493-4 0 00010
2 29107 098.2035 172.8748 0001449 085.3862 302.1396 14.57114504441831
1 29107U 06016  A 14231.00000000  .00000187  00000-0  41626-4 0 00016
2 29107 098.2038 173.8599 0001435 085.2161 144.8189 14.57114895441974
1 29107U 06016  A 14232.00000000  .00000181  00000-0  40318-4 0 00018
2 29107 098.2040 174.8449 0001423 085.0873 347.4584 14.57115527442128
1 29107U 06016  A 14233.00000000  .00000228  00000-0  50649-4 0 00019
2 29107 098.2043 175.8298 0001407 085.0354 190.0238 14.57115973442268
1 29107U 06016  A 14234.00000000  .00000250  00000-0  55583-4 0 00017
2 29107 098.2046 176.8148 0001392 084.9194 032.6548 14.57116591442418
1 29107U 06016    14235.00000000  .00000282  00000-0  62770-4 0 00019
2 29107 098.2048 177.7999 0001380 084.9662 235.1263 14.57116935442552
1 29107U 06016  A 14236.00000000  .00000322  00000-0  71506-4 0 00012
2 29107 098.2050 178.7849 0001365 084.8802 077.7314 14.57117507442708
1 21907U 06016  A 14237.00000000  .00000316  00000-0  70278-4 0 00011
2 21907 098.2051 179.7700 0001354 084.9531 280.1799 14.57118358442852
1 29107U 06016  A 14238.00000000  .00000428  00000-0  95108-4 0 00015
2 29107 098.2052 180.7551 0001337 084.9521 122.7054 14.57118801442992
1 29107U 06016  A 14239.00000000  .00000339  00000-0  75448-4 0 00012
2 29107 098.2051 181.7403 0001324 084.9487 325.2347 14.57119903443142
1 29107U 06016  A 14240.00000000  .00000342  00000-0  75947-4 0 00012
2 29107 098.2051 182.7256 0001311 085.0809 167.6322 14.57121133443289
1 29107U 06016  A 14241.00000000  .00000327  00000-0  72802-4 0 00013
2 29107 098.2050 183.7109 0001297 085.1580 010.0889 14.57122055443436
1 29107U 06016  A 14242.00000000  .00000322  00000-0  71673-4 0 00014
2 29107 098.2050 184.6962 0001284 085.2928 212.4915 14.57122835443575
1 29107U 060106   14243.00000000  .00000365  00000-0  81148-4 0 00010
2 29107 098.2050 185.6815 0001270 085.4768 054.8473 14.57123661443724
1 29107U 06016  A 14244.00000000  .00000355  00000-0  78814-4 0 00016
2 29107 098.2051 186.6668 0001259 085.7421 257.1254 14.57124520443863
1 29107U 06016  A 14245.00000000  .00000289  00000-0  64305-4 0 00013
2 29107 098.2053 187.6521 0001247 085.8093 099.6035 14.57125433444015
1 29107U 06016  A 14246.00000000  .00000342  00000-0  76106-4 0 00016
2 29107 098.2055 188.6374 0001236 086.1257 301.8362 14.57126158444160
1 29107U 06016  A 14247.00000000  .00000412  00000-0  91527-4 0 00019
2 29107 098.2058 189.6226 0001222 086.4017 144.1123 14.57126706444300
1 29107U 06016  A 14248.00000000  .00000488  00000-0  10848-3 0 00019
2 29107 098.2062 190.6078 0001210 086.7230 346.3452 14.57127356444458
1 29107U 06016  A 14249.00000000  .00000445  00000-0  98982-4 0 00019
2 29107 098.2065 191.5930 0001196 087.1378 188.4878 14.57128245444599
1 29107U 06016  A 14250.00000000  .00000508  00000-0  11282-3 0 00018
2 29107 098.2067 192.5783 0001187 087.5877 030.5978 14.57129165444743
1 29107U 06016  A 14251.00000000  .00000464  00000-0  10316-3 0 00017
2 29107 098.2069 193.5636 0001178 088.1099 232.6395 14.57129954444885
1 29107U 06016  A 14252.00000000  .00000607  00000-0  13495-3 0 00018
2 29107 098.2070 194.5490 0001168 088.7086 074.6065 14.57130984445038
1 29107U 06016  A 14253.00000000  .00000740  00000-0  16454-3 0 00015
2 29107 098.2070 195.5344 0001161 089.2914 276.5948 14.57131366445180
1 29107U 06016  A 14254.41666667  .00000704  00000-0  15660-3 0 00016
2 29107 098.2069 196.9305 0001274 083.1432 149.6734 14.57092310445383
1 29107U 06016  A 14255.00000000  .00000663  00000-0  14739-3 0 00015
2 29107 098.2069 197.5053 0001262 083.3135 327.5868 14.57093040445475
1 29107U 06016  A 14256.00000000  .00000634  00000-0  14103-3 0 00019
2 29107 098.2069 198.4908 0001244 083.5652 169.7669 14.57094992445618
1 29107U 06016  A 14257.00000000  .00000549  00000-0  12206-3 0 00017
2 29107 098.2069 199.4763 0001230 083.7864 011.9852 14.57096000445760
1 29107U 06016  A 14258.00000000  .00000467  00000-0  10397-3 0 00016
2 29107 098.2070 200.4617 0001216 084.1402 214.0755 14.57096625445907
1 29107U 06016  A 14259.00000000  .00000419  00000-0  93278-4 0 00014
2 29107 098.2072 201.4471 0001201 084.5056 056.1559 14.57097808446059
1 29107U 06016  A 14260.00000000  .00000441  00000-0  98080-4 0 00017
2 29107 098.2074 202.4325 0001189 085.1044 258.0076 14.57098762446191
1 29107U 06016  A 14261.00000000  .00000365  00000-0  81118-4 0 00017
2 29107 098.2076 203.4179 0001174 085.4820 100.0839 14.57099787446348
1 29107U 06016  A 14262.00000000  .00000343  00000-0  76367-4 0 00014
2 29107 098.2080 204.4033 0001166 086.0249 301.9984 14.57101083446498
1 29107U 06016  A 14263.00000000  .00000354  00000-0  78804-4 0 00015
2 29107 098.2083 205.3886 0001153 086.4561 144.0296 14.57101938446631
1 29107U 06016  A 14264.00000000  .00000515  00000-0  11448-3 0 00015
2 29107 098.2086 206.3740 0001143 087.1716 345.7806 14.57102508446780
1 29107U 06016  A 14265.00000000  .00000583  00000-0  12967-3 0 00018
2 29107 098.2089 207.3594 0001129 087.6498 187.7718 14.57103071446925
1 29107U 06016  A 14266.00000000  .00000614  00000-0  13659-3 0 00013
2 29107 098.2091 208.3449 0001120 088.2879 029.6046 14.57104210447070
1 29107U 06016    14267.00000000  .00000764  00000-0  16980-3 0 00010
2 29107 098.2093 209.3304 0001112 089.2364 231.1323 14.57104972447213
1 29107U 06016  A 14268.00000000  .00000933  00000-0  20759-3 0 00018
2 29107 098.2094 210.3160 0001102 089.8991 072.9486 14.57105928447366
1 29107U 06016  A 14269.00000000  .00001001  00000-0  22268-3 0 00013
2 29107 098.2094 211.3017 0001098 090.7848 274.5461 14.57107248447511
1 29107U 06016  A 14270.00000000  .00001066  00000-0  23712-3 0 00011
2 29107 098.2093 212.2875 0001091 091.5034 116.3144 14.57109185447659
1 29107U 06016  A 14271.00000000  .00001168  00000-0  25963-3 0 00015
2 29107 098.2093 213.2732 0001088 092.2917 318.0197 14.57110448447806
1 29107U 06016  A 14272.00000000  .00001248  00000-0  27756-3 0 00017
2 29107 098.2093 214.2590 0001083 093.0652 159.7462 14.57111420447940
1 29107U 06016  A 14273.00000000  .00001132  00000-0  25167-3 0 00014
2 29107 098.2094 215.2448 0001082 093.8082 001.5054 14.57113855448090
1 29107U 06016  A 14274.00000000  .00000897  00000-0  19941-3 0 00015
2 29107 098.2096 216.2305 0001079 094.6098 203.2134 14.57116180448237
1 29107U 06016  A 14275.04722222  .00000739  00000-0  16435-3 0 00017
2 29107 098.2098 217.2627 0001058 098.2958 289.6082 14.57131014448399
1 29107U 06016    14276.00000000  .00000752  00000-0  16708-3 0 00015
2 29107 098.2101 218.2019 0001067 099.1624 243.7466 14.57132704448529
1 29107U 06016  A 14277.00000000  .00000717  00000-0  15940-3 0 00014
2 29107 098.2105 219.1876 0001070 099.9918 085.4938 14.57134377448671
1 29107U 06016  A 14278.00000000  .00000550  00000-0  12216-3 0 00013
2 29107 098.2109 220.1732 0001079 100.6541 287.4141 14.57136475448827
1 29107U 06016  A 14279.00000000  .00000538  00000-0  11963-3 0 00018
2 29107 098.2112 221.1590 0001083 101.4303 129.2277 14.57137809448964
1 29107U 06016  A 14280.00000000  .00000562  00000-0  12498-3 0 00011
2 29107 098.2115 222.1447 0001093 102.1509 331.1023 14.57139022449116
